{
"type": "FeatureCollection",
"name": "bus_stops",
"crs": { "type": "name", "properties": { "name": "urn:ogc:def:crs:OGC:1.3:CRS84" } },
"features": [
{ "type": "Feature", "properties": { "station_id": "1:N5MAI", "stop_name": "05-mai", "lignes": "L4" }, "geometry": { "type": "Point", "coordinates": [ 166.4604296, -22.2657682 ] } },
{ "type": "Feature", "properties": { "station_id": "1:NAERO", "stop_name": "AERODROME", "lignes": "L4" }, "geometry": { "type": "Point", "coordinates": [ 166.47040815, -22.2611303 ] } },
{ "type": "Feature", "properties": { "station_id": "1:NALBE", "stop_name": "ALBERT", "lignes": "L4" }, "geometry": { "type": "Point", "coordinates": [ 166.4481471, -22.2660543 ] } },
{ "type": "Feature", "properties": { "station_id": "1:NANCR", "stop_name": "ANCRE DE MARINE", "lignes": "L3" }, "geometry": { "type": "Point", "coordinates": [ 166.444207350000028, -22.288118 ] } },
{ "type": "Feature", "properties": { "station_id": "1:NANSE", "stop_name": "ANSE VATA", "lignes": "L3, N1" }, "geometry": { "type": "Point", "coordinates": [ 166.445728700000018, -22.303254 ] } },
{ "type": "Feature", "properties": { "station_id": "1:NAQUA", "stop_name": "AQUARIUM", "lignes": "L3" }, "geometry": { "type": "Point", "coordinates": [ 166.4380539, -22.3006237 ] } },
{ "type": "Feature", "properties": { "station_id": "1:NBAIC", "stop_name": "BAIE DES CITRONS", "lignes": "L3" }, "geometry": { "type": "Point", "coordinates": [ 166.4382266, -22.2967445 ] } },
{ "type": "Feature", "properties": { "station_id": "1:NBAIM", "stop_name": "BAIE DE LA MOSELLE", "lignes": "L3" }, "geometry": { "type": "Point", "coordinates": [ 166.4420359, -22.2760857 ] } },
{ "type": "Feature", "properties": { "station_id": "1:NBATA", "stop_name": "BATAILLE", "lignes": "L4" }, "geometry": { "type": "Point", "coordinates": [ 166.4503765, -22.271602299999987 ] } },
{ "type": "Feature", "properties": { "station_id": "1:NBENE", "stop_name": "BENEBIG", "lignes": "L5" }, "geometry": { "type": "Point", "coordinates": [ 166.459405549999985, -22.26871955 ] } },
{ "type": "Feature", "properties": { "station_id": "1:NBERG", "stop_name": "BERGSON", "lignes": "N1" }, "geometry": { "type": "Point", "coordinates": [ 166.464674550000012, -22.273401149999984 ] } },
{ "type": "Feature", "properties": { "station_id": "1:NBLVD", "stop_name": "BOULEVARD", "lignes": "L4, L5" }, "geometry": { "type": "Point", "coordinates": [ 166.4493191, -22.274820099999989 ] } },
{ "type": "Feature", "properties": { "station_id": "1:NBOIS", "stop_name": "BOISSERY", "lignes": "L4" }, "geometry": { "type": "Point", "coordinates": [ 166.47077475, -22.249998699999981 ] } },
{ "type": "Feature", "properties": { "station_id": "1:NBOUA", "stop_name": "BOUARATE", "lignes": "N1" }, "geometry": { "type": "Point", "coordinates": [ 166.452307599999983, -22.281070450000023 ] } },
{ "type": "Feature", "properties": { "station_id": "1:NBOUS", "stop_name": "BOUSQUET", "lignes": "L3" }, "geometry": { "type": "Point", "coordinates": [ 166.397937300000024, -22.266262 ] } },
{ "type": "Feature", "properties": { "station_id": "1:NBOUZ", "stop_name": "BOUZET", "lignes": "L3" }, "geometry": { "type": "Point", "coordinates": [ 166.410825199999977, -22.2673102 ] } },
{ "type": "Feature", "properties": { "station_id": "1:NBROC", "stop_name": "BROCHE", "lignes": "L5" }, "geometry": { "type": "Point", "coordinates": [ 166.462040049999985, -22.270301799999977 ] } },
{ "type": "Feature", "properties": { "station_id": "1:NBUFF", "stop_name": "BUFFON", "lignes": "L4" }, "geometry": { "type": "Point", "coordinates": [ 166.476267650000011, -22.2357595 ] } },
{ "type": "Feature", "properties": { "station_id": "1:NBURC", "stop_name": "ECOLE BURCK", "lignes": "L1" }, "geometry": { "type": "Point", "coordinates": [ 166.463251800000023, -22.23796785 ] } },
{ "type": "Feature", "properties": { "station_id": "1:NCACO", "stop_name": "CACOT", "lignes": "L5" }, "geometry": { "type": "Point", "coordinates": [ 166.463909300000012, -22.26675415 ] } },
{ "type": "Feature", "properties": { "station_id": "1:NCASA", "stop_name": "CASAROLI", "lignes": "L5" }, "geometry": { "type": "Point", "coordinates": [ 166.44772135, -22.245921100000022 ] } },
{ "type": "Feature", "properties": { "station_id": "1:NCAST", "stop_name": "CASTELLANE", "lignes": "L4" }, "geometry": { "type": "Point", "coordinates": [ 166.4744296, -22.23729095 ] } },
{ "type": "Feature", "properties": { "station_id": "1:NCBAU", "stop_name": "COLLEGE BAUDOUX", "lignes": "L3" }, "geometry": { "type": "Point", "coordinates": [ 166.440768600000013, -22.2805322 ] } },
{ "type": "Feature", "properties": { "station_id": "1:NCHAL", "stop_name": "CHALIER", "lignes": "L5" }, "geometry": { "type": "Point", "coordinates": [ 166.462861800000013, -22.2480249 ] } },
{ "type": "Feature", "properties": { "station_id": "1:NCHAR", "stop_name": "CHARLEROI", "lignes": "N1" }, "geometry": { "type": "Point", "coordinates": [ 166.46080885, -22.276775749999963 ] } },
{ "type": "Feature", "properties": { "station_id": "1:NCHAT", "stop_name": "CHATEAU ROYAL", "lignes": "L3, N1" }, "geometry": { "type": "Point", "coordinates": [ 166.448881949999986, -22.3076887 ] } },
{ "type": "Feature", "properties": { "station_id": "1:NCHER", "stop_name": "CHERRIER", "lignes": "L4" }, "geometry": { "type": "Point", "coordinates": [ 166.47136285, -22.2533475 ] } },
{ "type": "Feature", "properties": { "station_id": "1:NCIME", "stop_name": "CIMETIERE", "lignes": "L4" }, "geometry": { "type": "Point", "coordinates": [ 166.46991395, -22.24181465 ] } },
{ "type": "Feature", "properties": { "station_id": "1:NCIRC", "stop_name": "CIRCULAIRE", "lignes": "L4" }, "geometry": { "type": "Point", "coordinates": [ 166.4719206, -22.2398583 ] } },
{ "type": "Feature", "properties": { "station_id": "1:NCKAM", "stop_name": "COLLEGE DE KAMERE", "lignes": "L5" }, "geometry": { "type": "Point", "coordinates": [ 166.43412565, -22.23306515 ] } },
{ "type": "Feature", "properties": { "station_id": "1:NCMSO", "stop_name": "CENTRE MEDICO-SOCIAL", "lignes": "L5" }, "geometry": { "type": "Point", "coordinates": [ 166.455998500000021, -22.24813845 ] } },
{ "type": "Feature", "properties": { "station_id": "1:NCNOR", "stop_name": "COLLEGE DE NORMANDIE", "lignes": "L2, L4, L8" }, "geometry": { "type": "Point", "coordinates": [ 166.49047325, -22.229789799999988 ] } },
{ "type": "Feature", "properties": { "station_id": "1:NCOMM", "stop_name": "COMMODORE", "lignes": "L3" }, "geometry": { "type": "Point", "coordinates": [ 166.4383839, -22.302261900000012 ] } },
{ "type": "Feature", "properties": { "station_id": "1:NCOUT", "stop_name": "CONSEIL COUTUMIER", "lignes": "L3" }, "geometry": { "type": "Point", "coordinates": [ 166.4133182, -22.26712345 ] } },
{ "type": "Feature", "properties": { "station_id": "1:NDELI", "stop_name": "DELIGNY", "lignes": "N1" }, "geometry": { "type": "Point", "coordinates": [ 166.4580397, -22.274047 ] } },
{ "type": "Feature", "properties": { "station_id": "1:NDELO", "stop_name": "DELORD", "lignes": "N1" }, "geometry": { "type": "Point", "coordinates": [ 166.4477714, -22.288993549999965 ] } },
{ "type": "Feature", "properties": { "station_id": "1:NDEME", "stop_name": "DEMENE", "lignes": "L4" }, "geometry": { "type": "Point", "coordinates": [ 166.462306650000016, -22.2671764 ] } },
{ "type": "Feature", "properties": { "station_id": "1:NDILL", "stop_name": "DILLENSEGER", "lignes": "L5" }, "geometry": { "type": "Point", "coordinates": [ 166.42858, -22.2324066 ] } },
{ "type": "Feature", "properties": { "station_id": "1:NDORB", "stop_name": "DORBRITZ", "lignes": "N1" }, "geometry": { "type": "Point", "coordinates": [ 166.471772150000021, -22.267384900000028 ] } },
{ "type": "Feature", "properties": { "station_id": "1:NDUBE", "stop_name": "DU BELLAY", "lignes": "L4" }, "geometry": { "type": "Point", "coordinates": [ 166.4590063, -22.26364535 ] } },
{ "type": "Feature", "properties": { "station_id": "1:NDUMA", "stop_name": "DUMAS", "lignes": "L4" }, "geometry": { "type": "Point", "coordinates": [ 166.469413, -22.2474016 ] } },
{ "type": "Feature", "properties": { "station_id": "1:NEAU", "stop_name": "EAU VIVE", "lignes": "N1" }, "geometry": { "type": "Point", "coordinates": [ 166.4566079, -22.286228949999987 ] } },
{ "type": "Feature", "properties": { "station_id": "1:NEIFF", "stop_name": "EIFFEL", "lignes": "L5" }, "geometry": { "type": "Point", "coordinates": [ 166.4471258, -22.243109549999986 ] } },
{ "type": "Feature", "properties": { "station_id": "1:NFAID", "stop_name": "FAIDHERBE", "lignes": "N1" }, "geometry": { "type": "Point", "coordinates": [ 166.4513363, -22.2791901 ] } },
{ "type": "Feature", "properties": { "station_id": "1:NFORE", "stop_name": "FOREST", "lignes": "L1, L7, L8" }, "geometry": { "type": "Point", "coordinates": [ 166.449143100000015, -22.246097949999985 ] } },
{ "type": "Feature", "properties": { "station_id": "1:NFOYE", "stop_name": "FOYER DES ILES", "lignes": "L4" }, "geometry": { "type": "Point", "coordinates": [ 166.44844735, -22.2690337 ] } },
{ "type": "Feature", "properties": { "station_id": "1:NFRAN", "stop_name": "FRANGIPANIERS", "lignes": "N1" }, "geometry": { "type": "Point", "coordinates": [ 166.442518249999978, -22.294290500000013 ] } },
{ "type": "Feature", "properties": { "station_id": "1:NGALA", "stop_name": "GALAXIE", "lignes": "L5" }, "geometry": { "type": "Point", "coordinates": [ 166.45141935, -22.2715498 ] } },
{ "type": "Feature", "properties": { "station_id": "1:NGALI", "stop_name": "GALILEE", "lignes": "L5" }, "geometry": { "type": "Point", "coordinates": [ 166.446966800000013, -22.23715405 ] } },
{ "type": "Feature", "properties": { "station_id": "1:NGFOR", "stop_name": "GIRATOIRE FOREST", "lignes": "L1, L7, L8" }, "geometry": { "type": "Point", "coordinates": [ 166.453614500000015, -22.24271735 ] } },
{ "type": "Feature", "properties": { "station_id": "1:NGMAG", "stop_name": "GIRATOIRE MAGENTA", "lignes": "L4, N1" }, "geometry": { "type": "Point", "coordinates": [ 166.46425720000002, -22.26729745 ] } },
{ "type": "Feature", "properties": { "station_id": "1:NGUIR", "stop_name": "GUIRAUD", "lignes": "N1" }, "geometry": { "type": "Point", "coordinates": [ 166.4476244, -22.291694099999987 ] } },
{ "type": "Feature", "properties": { "station_id": "1:NIEKA", "stop_name": "IEKAWE", "lignes": "L4" }, "geometry": { "type": "Point", "coordinates": [ 166.46888895, -22.2443145 ] } },
{ "type": "Feature", "properties": { "station_id": "1:NIMPE", "stop_name": "IMPERIAL", "lignes": "L5" }, "geometry": { "type": "Point", "coordinates": [ 166.45883280000001, -22.24707415 ] } },
{ "type": "Feature", "properties": { "station_id": "1:NJAME", "stop_name": "JAMES COOK", "lignes": "L3" }, "geometry": { "type": "Point", "coordinates": [ 166.408478450000047, -22.2625702 ] } },
{ "type": "Feature", "properties": { "station_id": "1:NJUIN", "stop_name": "18-juin", "lignes": "L5, N1" }, "geometry": { "type": "Point", "coordinates": [ 166.4636381, -22.269403300000025 ] } },
{ "type": "Feature", "properties": { "station_id": "1:NKAME", "stop_name": "KAMERE", "lignes": "L5" }, "geometry": { "type": "Point", "coordinates": [ 166.43142275, -22.23261605 ] } },
{ "type": "Feature", "properties": { "station_id": "1:NKOWI", "stop_name": "KOWI BOUILLANT", "lignes": "L3" }, "geometry": { "type": "Point", "coordinates": [ 166.4012186, -22.261653050000021 ] } },
{ "type": "Feature", "properties": { "station_id": "1:NLAPI", "stop_name": "LAPITA", "lignes": "L5" }, "geometry": { "type": "Point", "coordinates": [ 166.463015399999989, -22.253601050000022 ] } },
{ "type": "Feature", "properties": { "station_id": "1:NLAVO", "stop_name": "LAVOISIER", "lignes": "L5" }, "geometry": { "type": "Point", "coordinates": [ 166.44695005, -22.241181949999984 ] } },
{ "type": "Feature", "properties": { "station_id": "1:NLEGR", "stop_name": "LEGRAS", "lignes": "L3" }, "geometry": { "type": "Point", "coordinates": [ 166.4388027, -22.294706600000048 ] } },
{ "type": "Feature", "properties": { "station_id": "1:NLIST", "stop_name": "LISTZ", "lignes": "N1" }, "geometry": { "type": "Point", "coordinates": [ 166.459566099999989, -22.275000099999978 ] } },
{ "type": "Feature", "properties": { "station_id": "1:NLJUL", "stop_name": "LYCEE JULES GARNIER", "lignes": "L3" }, "geometry": { "type": "Point", "coordinates": [ 166.4213431, -22.267424150000046 ] } },
{ "type": "Feature", "properties": { "station_id": "1:NLLAP", "stop_name": "LYCEE LAPEROUSE", "lignes": "L3" }, "geometry": { "type": "Point", "coordinates": [ 166.4432147, -22.280805700000013 ] } },
{ "type": "Feature", "properties": { "station_id": "1:NMADR", "stop_name": "MADREPORES", "lignes": "L4" }, "geometry": { "type": "Point", "coordinates": [ 166.4809287, -22.2313572 ] } },
{ "type": "Feature", "properties": { "station_id": "1:NMAGE", "stop_name": "MAGENTA", "lignes": "N1" }, "geometry": { "type": "Point", "coordinates": [ 166.46663475, -22.274985099999977 ] } },
{ "type": "Feature", "properties": { "station_id": "1:NMARC", "stop_name": "MARCONI", "lignes": "L5" }, "geometry": { "type": "Point", "coordinates": [ 166.44315, -22.23495 ] } },
{ "type": "Feature", "properties": { "station_id": "1:NMARM", "stop_name": "MARMOITTON", "lignes": "N1" }, "geometry": { "type": "Point", "coordinates": [ 166.453996650000022, -22.284366599999981 ] } },
{ "type": "Feature", "properties": { "station_id": "1:NMERC", "stop_name": "MERCIER", "lignes": "L5" }, "geometry": { "type": "Point", "coordinates": [ 166.4540442, -22.2700617 ] } },
{ "type": "Feature", "properties": { "station_id": "1:NMMAR", "stop_name": "MUSEE MARITIME", "lignes": "L3" }, "geometry": { "type": "Point", "coordinates": [ 166.43388485, -22.267821149999964 ] } },
{ "type": "Feature", "properties": { "station_id": "1:NMONT", "stop_name": "MONTRAVEL", "lignes": "L5" }, "geometry": { "type": "Point", "coordinates": [ 166.452836199999979, -22.249799699999969 ] } },
{ "type": "Feature", "properties": { "station_id": "1:NMOUC", "stop_name": "MOUCHET", "lignes": "L2" }, "geometry": { "type": "Point", "coordinates": [ 166.485454300000015, -22.21695780000001 ] } },
{ "type": "Feature", "properties": { "station_id": "1:NMOUL", "stop_name": "MOULIN", "lignes": "L4" }, "geometry": { "type": "Point", "coordinates": [ 166.479178750000017, -22.23309165 ] } },
{ "type": "Feature", "properties": { "station_id": "1:NMOUR", "stop_name": "MOURIN", "lignes": "L2, L4" }, "geometry": { "type": "Point", "coordinates": [ 166.488329799999974, -22.22697385 ] } },
{ "type": "Feature", "properties": { "station_id": "1:NMTER", "stop_name": "MUSEE TERRITORIAL", "lignes": "L3" }, "geometry": { "type": "Point", "coordinates": [ 166.442905599999989, -22.2748913 ] } },
{ "type": "Feature", "properties": { "station_id": "1:NOHLE", "stop_name": "OHLEN", "lignes": "L5" }, "geometry": { "type": "Point", "coordinates": [ 166.45584685, -22.267866799999986 ] } },
{ "type": "Feature", "properties": { "station_id": "1:NORPH", "stop_name": "ORPHELINAT", "lignes": "L3" }, "geometry": { "type": "Point", "coordinates": [ 166.444569300000012, -22.28430155 ] } },
{ "type": "Feature", "properties": { "station_id": "1:NOUEN", "stop_name": "OUEN TORO", "lignes": "L3, N1" }, "geometry": { "type": "Point", "coordinates": [ 166.45125440000001, -22.307542400000013 ] } },
{ "type": "Feature", "properties": { "station_id": "1:NPARC", "stop_name": "PARC URBAIN", "lignes": "N1" }, "geometry": { "type": "Point", "coordinates": [ 166.467997949999983, -22.279492199999989 ] } },
{ "type": "Feature", "properties": { "station_id": "1:NPASC", "stop_name": "PASCAL", "lignes": "N1" }, "geometry": { "type": "Point", "coordinates": [ 166.443941600000016, -22.29644505 ] } },
{ "type": "Feature", "properties": { "station_id": "1:NPENI", "stop_name": "PENITENCIER", "lignes": "L3" }, "geometry": { "type": "Point", "coordinates": [ 166.426020200000011, -22.270907199999975 ] } },
{ "type": "Feature", "properties": { "station_id": "1:NPERV", "stop_name": "PERVENCHES", "lignes": "L5" }, "geometry": { "type": "Point", "coordinates": [ 166.4626916, -22.2570382 ] } },
{ "type": "Feature", "properties": { "station_id": "1:NPLAG", "stop_name": "PLAGE DE MAGENTA", "lignes": "L4" }, "geometry": { "type": "Point", "coordinates": [ 166.47186045, -22.2646844 ] } },
{ "type": "Feature", "properties": { "station_id": "1:NPLAI", "stop_name": "PORT PLAISANCE", "lignes": "L3" }, "geometry": { "type": "Point", "coordinates": [ 166.4399939, -22.29068475 ] } },
{ "type": "Feature", "properties": { "station_id": "1:NPLGE", "stop_name": "PLACE DES GENDARMES", "lignes": "L4, L5, N1" }, "geometry": { "type": "Point", "coordinates": [ 166.4468611, -22.273815200000016 ] } },
{ "type": "Feature", "properties": { "station_id": "1:NPLMO", "stop_name": "PLACE MOSELLE", "lignes": "L1, L3, L4, L5, L7, L8, N1" }, "geometry": { "type": "Point", "coordinates": [ 166.441502983333322, -22.274205649999981 ] } },
{ "type": "Feature", "properties": { "station_id": "1:NPMAG", "stop_name": "PORT DE MAGENTA", "lignes": "N1" }, "geometry": { "type": "Point", "coordinates": [ 166.470204099999989, -22.2700488 ] } },
{ "type": "Feature", "properties": { "station_id": "1:NPMOO", "stop_name": "PARC MOORE", "lignes": "N1" }, "geometry": { "type": "Point", "coordinates": [ 166.449985, -22.27678705 ] } },
{ "type": "Feature", "properties": { "station_id": "1:NPOIN", "stop_name": "POINTE CHALEIX", "lignes": "L3" }, "geometry": { "type": "Point", "coordinates": [ 166.4391373, -22.29304405000001 ] } },
{ "type": "Feature", "properties": { "station_id": "1:NPOLY", "stop_name": "POLYCLINIQUE", "lignes": "L3" }, "geometry": { "type": "Point", "coordinates": [ 166.4085096, -22.268476300000021 ] } },
{ "type": "Feature", "properties": { "station_id": "1:NPONT", "stop_name": "PONT DE NOU", "lignes": "L3" }, "geometry": { "type": "Point", "coordinates": [ 166.425615199999982, -22.26843835 ] } },
{ "type": "Feature", "properties": { "station_id": "1:NPRIV", "stop_name": "PARC RIVIERE SALEE", "lignes": "L1" }, "geometry": { "type": "Point", "coordinates": [ 166.466516399999989, -22.233529150000027 ] } },
{ "type": "Feature", "properties": { "station_id": "1:NPROV", "stop_name": "PROVINCE SUD", "lignes": "L3" }, "geometry": { "type": "Point", "coordinates": [ 166.4413917, -22.278038 ] } },
{ "type": "Feature", "properties": { "station_id": "1:NPYAH", "stop_name": "PARC DE LA YAHOUE", "lignes": "L2, L4" }, "geometry": { "type": "Point", "coordinates": [ 166.4862594, -22.22422095 ] } },
{ "type": "Feature", "properties": { "station_id": "1:NRABO", "stop_name": "RABOT", "lignes": "L8" }, "geometry": { "type": "Point", "coordinates": [ 166.469344700000022, -22.24577625 ] } },
{ "type": "Feature", "properties": { "station_id": "1:NRIVI", "stop_name": "RIVIERE", "lignes": "N1" }, "geometry": { "type": "Point", "coordinates": [ 166.4481846, -22.286111599999966 ] } },
{ "type": "Feature", "properties": { "station_id": "1:NROND", "stop_name": "ROND POINT BONAPARTE", "lignes": "L1" }, "geometry": { "type": "Point", "coordinates": [ 166.461338399999988, -22.24180675 ] } },
{ "type": "Feature", "properties": { "station_id": "1:NROUG", "stop_name": "ROUGY", "lignes": "L4" }, "geometry": { "type": "Point", "coordinates": [ 166.4499602, -22.2719014 ] } },
{ "type": "Feature", "properties": { "station_id": "1:NRUSS", "stop_name": "RUSSEIL", "lignes": "L3" }, "geometry": { "type": "Point", "coordinates": [ 166.43029575, -22.268101350000027 ] } },
{ "type": "Feature", "properties": { "station_id": "1:NSAKA", "stop_name": "SAKAMOTO", "lignes": "L4" }, "geometry": { "type": "Point", "coordinates": [ 166.45545665, -22.264093 ] } },
{ "type": "Feature", "properties": { "station_id": "1:NSCHM", "stop_name": "SCHMIDT", "lignes": "N1" }, "geometry": { "type": "Point", "coordinates": [ 166.4595299, -22.275831 ] } },
{ "type": "Feature", "properties": { "station_id": "1:NSCHW", "stop_name": "SCHWEITZER", "lignes": "L5" }, "geometry": { "type": "Point", "coordinates": [ 166.438378699999987, -22.236124600000053 ] } },
{ "type": "Feature", "properties": { "station_id": "1:NSTAM", "stop_name": "STADE DE MAGENTA", "lignes": "L4, N1" }, "geometry": { "type": "Point", "coordinates": [ 166.468616450000013, -22.2666622 ] } },
{ "type": "Feature", "properties": { "station_id": "1:NSTAP", "stop_name": "STADE PENTECOST", "lignes": "N1" }, "geometry": { "type": "Point", "coordinates": [ 166.444934400000022, -22.29739515 ] } },
{ "type": "Feature", "properties": { "station_id": "1:NSTRA", "stop_name": "STRASBOURG", "lignes": "N1" }, "geometry": { "type": "Point", "coordinates": [ 166.44865955, -22.278059399999975 ] } },
{ "type": "Feature", "properties": { "station_id": "1:NTABO", "stop_name": "TABOU", "lignes": "N1" }, "geometry": { "type": "Point", "coordinates": [ 166.444900249999989, -22.300501850000014 ] } },
{ "type": "Feature", "properties": { "station_id": "1:NTARA", "stop_name": "TARAGNAT", "lignes": "N1" }, "geometry": { "type": "Point", "coordinates": [ 166.4577466, -22.276486100000017 ] } },
{ "type": "Feature", "properties": { "station_id": "1:NTENN", "stop_name": "TENNIS DU RECEIVING", "lignes": "N1" }, "geometry": { "type": "Point", "coordinates": [ 166.44472295, -22.291724399999982 ] } },
{ "type": "Feature", "properties": { "station_id": "1:NTIVO", "stop_name": "TIVOLIER", "lignes": "L3" }, "geometry": { "type": "Point", "coordinates": [ 166.3993, -22.264 ] } },
{ "type": "Feature", "properties": { "station_id": "1:NTRES", "stop_name": "TRESOR PUBLIC", "lignes": "N1" }, "geometry": { "type": "Point", "coordinates": [ 166.46775965, -22.276282449999989 ] } },
{ "type": "Feature", "properties": { "station_id": "1:NTRIA", "stop_name": "TRIANON", "lignes": "N1" }, "geometry": { "type": "Point", "coordinates": [ 166.4486474, -22.283550200000029 ] } },
{ "type": "Feature", "properties": { "station_id": "1:NTROU", "stop_name": "ECOLE TROUILLOT", "lignes": "L1" }, "geometry": { "type": "Point", "coordinates": [ 166.471309749999989, -22.229469899999987 ] } },
{ "type": "Feature", "properties": { "station_id": "1:NUNIV", "stop_name": "UNIVERSITE", "lignes": "L3" }, "geometry": { "type": "Point", "coordinates": [ 166.404518849999988, -22.262205 ] } },
{ "type": "Feature", "properties": { "station_id": "1:NVALB", "stop_name": "VALBONNE", "lignes": "L4, L5, N1" }, "geometry": { "type": "Point", "coordinates": [ 166.4469703, -22.274600599999982 ] } },
{ "type": "Feature", "properties": { "station_id": "1:NVARO", "stop_name": "VAL RODA", "lignes": "L5" }, "geometry": { "type": "Point", "coordinates": [ 166.46362825, -22.251079749999985 ] } },
{ "type": "Feature", "properties": { "station_id": "1:NVERL", "stop_name": "VERLAINE", "lignes": "L5" }, "geometry": { "type": "Point", "coordinates": [ 166.4631604, -22.25954745 ] } },
{ "type": "Feature", "properties": { "station_id": "1:NVERN", "stop_name": "VERNE", "lignes": "L5" }, "geometry": { "type": "Point", "coordinates": [ 166.46345385, -22.263330600000049 ] } },
{ "type": "Feature", "properties": { "station_id": "1:NVGAZ", "stop_name": "VALLON DU GAZ", "lignes": "L3" }, "geometry": { "type": "Point", "coordinates": [ 166.441970500000025, -22.289695249999966 ] } },
{ "type": "Feature", "properties": { "station_id": "1:NVICT", "stop_name": "VICTOIRE", "lignes": "L4, L5, N1" }, "geometry": { "type": "Point", "coordinates": [ 166.44481535, -22.2743399 ] } },
{ "type": "Feature", "properties": { "station_id": "1:NVIER", "stop_name": "VIERGE DU PACIFIQUE", "lignes": "L4" }, "geometry": { "type": "Point", "coordinates": [ 166.4501536, -22.263868 ] } },
{ "type": "Feature", "properties": { "station_id": "1:NVOLT", "stop_name": "VOLTAIRE", "lignes": "L4" }, "geometry": { "type": "Point", "coordinates": [ 166.480766150000022, -22.227659449999987 ] } }
]
}
