{
"type": "FeatureCollection",
"name": "vote_context_bureaux",
"crs": { "type": "name", "properties": { "name": "urn:ogc:def:crs:OGC:1.3:CRS84" } },
"features": [
{ "type": "Feature", "properties": { "code_bv": "0001", "bureau_nom_resultats_municipales": "Mairie 1", "longitude": 166.439401925184, "latitude": -22.271405610422899, "iris_codgeo": 1822, "iris_libgeo": "Centre ville", "inscrits_municipales": 874.0, "votants_municipales": 379.0, "abstentions_municipales": 495.0, "abstention_municipales": 56.636155606407321, "bureau_nom_habituel": "MAIRIE 1", "bureau_nom_provinciales": "Mairie 1", "inscrits_provinciales": 630.0, "votants_provinciales": 383.0, "participation_provinciales": 60.79, "abstentions_provinciales": 247.0, "abstention_provinciales": 39.21, "ecart_abstention_provinciales_municipales": -17.42615560640732 }, "geometry": { "type": "Point", "coordinates": [ 166.439401925184001, -22.271405610422899 ] } },
{ "type": "Feature", "properties": { "code_bv": "0002", "bureau_nom_resultats_municipales": "Mairie 2", "longitude": 166.439401925184, "latitude": -22.271405610422899, "iris_codgeo": 1822, "iris_libgeo": "Centre ville", "inscrits_municipales": 1567.0, "votants_municipales": 553.0, "abstentions_municipales": 1014.0, "abstention_municipales": 64.709636247606895, "bureau_nom_habituel": "MAIRIE 2", "bureau_nom_provinciales": "Mairie 2", "inscrits_provinciales": 1192.0, "votants_provinciales": 545.0, "participation_provinciales": 45.72, "abstentions_provinciales": 647.0, "abstention_provinciales": 54.28, "ecart_abstention_provinciales_municipales": -10.429636247606894 }, "geometry": { "type": "Point", "coordinates": [ 166.439401925184001, -22.271405610422899 ] } },
{ "type": "Feature", "properties": { "code_bv": "0003", "bureau_nom_resultats_municipales": "École Frédéric SURLEAU", "longitude": 166.446180272936, "latitude": -22.273284213573699, "iris_codgeo": 1822, "iris_libgeo": "Centre ville", "inscrits_municipales": 1220.0, "votants_municipales": 554.0, "abstentions_municipales": 666.0, "abstention_municipales": 54.590163934426229, "bureau_nom_habituel": "Ecole Frédéric SURLEAU", "bureau_nom_provinciales": "Ecole Frédéric Surleau", "inscrits_provinciales": 756.0, "votants_provinciales": 504.0, "participation_provinciales": 66.67, "abstentions_provinciales": 252.0, "abstention_provinciales": 33.33, "ecart_abstention_provinciales_municipales": -21.260163934426231 }, "geometry": { "type": "Point", "coordinates": [ 166.446180272936004, -22.273284213573699 ] } },
{ "type": "Feature", "properties": { "code_bv": "0004", "bureau_nom_resultats_municipales": "École Marguerite LEFRANCOIS", "longitude": 166.44604457406601, "latitude": -22.285990909729801, "iris_codgeo": 1809, "iris_libgeo": "Orphelinat", "inscrits_municipales": 1223.0, "votants_municipales": 658.0, "abstentions_municipales": 565.0, "abstention_municipales": 46.197874080130823, "bureau_nom_habituel": "Ecole Marguerite LEFRANCOIS", "bureau_nom_provinciales": "Ecole Marguerite Lefrançois", "inscrits_provinciales": 737.0, "votants_provinciales": 566.0, "participation_provinciales": 76.8, "abstentions_provinciales": 171.0, "abstention_provinciales": 23.2, "ecart_abstention_provinciales_municipales": -22.997874080130824 }, "geometry": { "type": "Point", "coordinates": [ 166.446044574066008, -22.285990909729801 ] } },
{ "type": "Feature", "properties": { "code_bv": "0005", "bureau_nom_resultats_municipales": "École Yvonne DUPONT 1", "longitude": 166.44217365735199, "latitude": -22.292674881403499, "iris_codgeo": 1806, "iris_libgeo": "Motor Pool - Receiving", "inscrits_municipales": 1075.0, "votants_municipales": 622.0, "abstentions_municipales": 453.0, "abstention_municipales": 42.139534883720927, "bureau_nom_habituel": "Ecole Yvonne DUPONT 1", "bureau_nom_provinciales": "Ecole Yvonne Dupont 1", "inscrits_provinciales": 706.0, "votants_provinciales": 558.0, "participation_provinciales": 79.04, "abstentions_provinciales": 148.0, "abstention_provinciales": 20.96, "ecart_abstention_provinciales_municipales": -21.179534883720926 }, "geometry": { "type": "Point", "coordinates": [ 166.442173657351987, -22.292674881403499 ] } },
{ "type": "Feature", "properties": { "code_bv": "0006", "bureau_nom_resultats_municipales": "École Eloi FRANC 1", "longitude": 166.44782646784199, "latitude": -22.297428142809501, "iris_codgeo": 1803, "iris_libgeo": "Anse Vata Est", "inscrits_municipales": 1371.0, "votants_municipales": 693.0, "abstentions_municipales": 678.0, "abstention_municipales": 49.452954048140043, "bureau_nom_habituel": "Ecole Eloi FRANC 1", "bureau_nom_provinciales": "Ecole Eloi Franc 1", "inscrits_provinciales": 913.0, "votants_provinciales": 674.0, "participation_provinciales": 73.82, "abstentions_provinciales": 239.0, "abstention_provinciales": 26.18, "ecart_abstention_provinciales_municipales": -23.272954048140043 }, "geometry": { "type": "Point", "coordinates": [ 166.447826467841992, -22.297428142809501 ] } },
{ "type": "Feature", "properties": { "code_bv": "0007", "bureau_nom_resultats_municipales": "École Eloi FRANC 2", "longitude": 166.44782646784199, "latitude": -22.297428142809501, "iris_codgeo": 1803, "iris_libgeo": "Anse Vata Est", "inscrits_municipales": 1098.0, "votants_municipales": 619.0, "abstentions_municipales": 479.0, "abstention_municipales": 43.624772313296901, "bureau_nom_habituel": "Ecole Eloi FRANC 2", "bureau_nom_provinciales": "Ecole Eloi Franc 2", "inscrits_provinciales": 772.0, "votants_provinciales": 576.0, "participation_provinciales": 74.61, "abstentions_provinciales": 196.0, "abstention_provinciales": 25.39, "ecart_abstention_provinciales_municipales": -18.234772313296901 }, "geometry": { "type": "Point", "coordinates": [ 166.447826467841992, -22.297428142809501 ] } },
{ "type": "Feature", "properties": { "code_bv": "0008", "bureau_nom_resultats_municipales": "École Fernande LERICHE 1", "longitude": 166.448431376266, "latitude": -22.298474095067199, "iris_codgeo": 1803, "iris_libgeo": "Anse Vata Est", "inscrits_municipales": 1133.0, "votants_municipales": 590.0, "abstentions_municipales": 543.0, "abstention_municipales": 47.92586054721977, "bureau_nom_habituel": "Ecole Fernande LERICHE 1", "bureau_nom_provinciales": "Ecole Fernande Leriche 1", "inscrits_provinciales": 705.0, "votants_provinciales": 540.0, "participation_provinciales": 76.6, "abstentions_provinciales": 165.0, "abstention_provinciales": 23.4, "ecart_abstention_provinciales_municipales": -24.525860547219771 }, "geometry": { "type": "Point", "coordinates": [ 166.448431376266001, -22.298474095067199 ] } },
{ "type": "Feature", "properties": { "code_bv": "0009", "bureau_nom_resultats_municipales": "École Fernande LERICHE 2", "longitude": 166.448431376266, "latitude": -22.298474095067199, "iris_codgeo": 1803, "iris_libgeo": "Anse Vata Est", "inscrits_municipales": 1105.0, "votants_municipales": 627.0, "abstentions_municipales": 478.0, "abstention_municipales": 43.257918552036202, "bureau_nom_habituel": "Ecole Fernande LERICHE 2", "bureau_nom_provinciales": "Ecole Fernande Leriche 2", "inscrits_provinciales": 812.0, "votants_provinciales": 615.0, "participation_provinciales": 75.74, "abstentions_provinciales": 197.0, "abstention_provinciales": 24.26, "ecart_abstention_provinciales_municipales": -18.9979185520362 }, "geometry": { "type": "Point", "coordinates": [ 166.448431376266001, -22.298474095067199 ] } },
{ "type": "Feature", "properties": { "code_bv": "0010", "bureau_nom_resultats_municipales": "École Jean MERMOUD 1", "longitude": 166.454827725543, "latitude": -22.295684460492801, "iris_codgeo": 1807, "iris_libgeo": "N'Géa", "inscrits_municipales": 1273.0, "votants_municipales": 719.0, "abstentions_municipales": 554.0, "abstention_municipales": 43.51924587588374, "bureau_nom_habituel": "Ecole Jean MERMOUD 1", "bureau_nom_provinciales": "Ecole Jean Mermoud 1", "inscrits_provinciales": 806.0, "votants_provinciales": 628.0, "participation_provinciales": 77.92, "abstentions_provinciales": 178.0, "abstention_provinciales": 22.08, "ecart_abstention_provinciales_municipales": -21.439245875883742 }, "geometry": { "type": "Point", "coordinates": [ 166.454827725542998, -22.295684460492801 ] } },
{ "type": "Feature", "properties": { "code_bv": "0011", "bureau_nom_resultats_municipales": "École Jean MERMOUD 2", "longitude": 166.454827725543, "latitude": -22.295684460492801, "iris_codgeo": 1807, "iris_libgeo": "N'Géa", "inscrits_municipales": 1303.0, "votants_municipales": 808.0, "abstentions_municipales": 495.0, "abstention_municipales": 37.989255564082889, "bureau_nom_habituel": "Ecole Jean MERMOUD 2", "bureau_nom_provinciales": "Ecole Jean Mermoud 2", "inscrits_provinciales": 965.0, "votants_provinciales": 819.0, "participation_provinciales": 84.87, "abstentions_provinciales": 146.0, "abstention_provinciales": 15.13, "ecart_abstention_provinciales_municipales": -22.859255564082886 }, "geometry": { "type": "Point", "coordinates": [ 166.454827725542998, -22.295684460492801 ] } },
{ "type": "Feature", "properties": { "code_bv": "0012", "bureau_nom_resultats_municipales": "École Ernest RISBEC 1", "longitude": 166.45170494092901, "latitude": -22.283844518806301, "iris_codgeo": 1808, "iris_libgeo": "Trianon", "inscrits_municipales": 1351.0, "votants_municipales": 711.0, "abstentions_municipales": 640.0, "abstention_municipales": 47.372316802368616, "bureau_nom_habituel": "Ecole Ernest RISBEC 1", "bureau_nom_provinciales": "Ecole Ernest Risbec 1", "inscrits_provinciales": 851.0, "votants_provinciales": 619.0, "participation_provinciales": 72.74, "abstentions_provinciales": 232.0, "abstention_provinciales": 27.26, "ecart_abstention_provinciales_municipales": -20.112316802368614 }, "geometry": { "type": "Point", "coordinates": [ 166.451704940929005, -22.283844518806301 ] } },
{ "type": "Feature", "properties": { "code_bv": "0013", "bureau_nom_resultats_municipales": "École Ernest RISBEC 2", "longitude": 166.45170494092901, "latitude": -22.283844518806301, "iris_codgeo": 1808, "iris_libgeo": "Trianon", "inscrits_municipales": 1067.0, "votants_municipales": 558.0, "abstentions_municipales": 509.0, "abstention_municipales": 47.703842549203372, "bureau_nom_habituel": "Ecole Ernest RISBEC 2", "bureau_nom_provinciales": "Ecole Ernest Risbec 2", "inscrits_provinciales": 798.0, "votants_provinciales": 584.0, "participation_provinciales": 73.18, "abstentions_provinciales": 214.0, "abstention_provinciales": 26.82, "ecart_abstention_provinciales_municipales": -20.883842549203372 }, "geometry": { "type": "Point", "coordinates": [ 166.451704940929005, -22.283844518806301 ] } },
{ "type": "Feature", "properties": { "code_bv": "0014", "bureau_nom_resultats_municipales": "École Paul BOYER 1", "longitude": 166.45248296915301, "latitude": -22.2781620536236, "iris_codgeo": 1811, "iris_libgeo": "Faubourg Blanchot", "inscrits_municipales": 1092.0, "votants_municipales": 521.0, "abstentions_municipales": 571.0, "abstention_municipales": 52.289377289377292, "bureau_nom_habituel": "Ecole Paul BOYER 1", "bureau_nom_provinciales": "Ecole Paul Boyer 1", "inscrits_provinciales": 706.0, "votants_provinciales": 472.0, "participation_provinciales": 66.86, "abstentions_provinciales": 234.0, "abstention_provinciales": 33.14, "ecart_abstention_provinciales_municipales": -19.149377289377291 }, "geometry": { "type": "Point", "coordinates": [ 166.45248296915301, -22.2781620536236 ] } },
{ "type": "Feature", "properties": { "code_bv": "0015", "bureau_nom_resultats_municipales": "École les CAPUCINES", "longitude": 166.457228804171, "latitude": -22.275367711957799, "iris_codgeo": 1813, "iris_libgeo": "Vallée des Colons Sud Ouest", "inscrits_municipales": 951.0, "votants_municipales": 551.0, "abstentions_municipales": 400.0, "abstention_municipales": 42.060988433228182, "bureau_nom_habituel": "Ecole Les CAPUCINES", "bureau_nom_provinciales": "Ecole Les Capucines", "inscrits_provinciales": 761.0, "votants_provinciales": 571.0, "participation_provinciales": 75.03, "abstentions_provinciales": 190.0, "abstention_provinciales": 24.97, "ecart_abstention_provinciales_municipales": -17.090988433228183 }, "geometry": { "type": "Point", "coordinates": [ 166.457228804170995, -22.275367711957799 ] } },
{ "type": "Feature", "properties": { "code_bv": "0016", "bureau_nom_resultats_municipales": "École Candide KOCH 1", "longitude": 166.45645004022299, "latitude": -22.2745660873879, "iris_codgeo": 1813, "iris_libgeo": "Vallée des Colons Sud Ouest", "inscrits_municipales": 1081.0, "votants_municipales": 537.0, "abstentions_municipales": 544.0, "abstention_municipales": 50.323774283071231, "bureau_nom_habituel": "Ecole Candide KOCH 1", "bureau_nom_provinciales": "Ecole Candide Koch 1", "inscrits_provinciales": 811.0, "votants_provinciales": 574.0, "participation_provinciales": 70.78, "abstentions_provinciales": 237.0, "abstention_provinciales": 29.22, "ecart_abstention_provinciales_municipales": -21.103774283071232 }, "geometry": { "type": "Point", "coordinates": [ 166.45645004022299, -22.2745660873879 ] } },
{ "type": "Feature", "properties": { "code_bv": "0017", "bureau_nom_resultats_municipales": "École Candide KOCH 2", "longitude": 166.45645004022299, "latitude": -22.2745660873879, "iris_codgeo": 1813, "iris_libgeo": "Vallée des Colons Sud Ouest", "inscrits_municipales": 1177.0, "votants_municipales": 660.0, "abstentions_municipales": 517.0, "abstention_municipales": 43.925233644859816, "bureau_nom_habituel": "Ecole Candide KOCH 2", "bureau_nom_provinciales": "Ecole Candide Koch 2", "inscrits_provinciales": 884.0, "votants_provinciales": 677.0, "participation_provinciales": 76.58, "abstentions_provinciales": 207.0, "abstention_provinciales": 23.42, "ecart_abstention_provinciales_municipales": -20.505233644859814 }, "geometry": { "type": "Point", "coordinates": [ 166.45645004022299, -22.2745660873879 ] } },
{ "type": "Feature", "properties": { "code_bv": "0018", "bureau_nom_resultats_municipales": "École Emily PANNE 1", "longitude": 166.45486051243699, "latitude": -22.268926132580098, "iris_codgeo": 1820, "iris_libgeo": "Vallée des Colons Nord Est", "inscrits_municipales": 1038.0, "votants_municipales": 541.0, "abstentions_municipales": 497.0, "abstention_municipales": 47.880539499036608, "bureau_nom_habituel": "Ecole Suzanne RUSSIER 1", "bureau_nom_provinciales": "Ecole Suzanne Russier 1", "inscrits_provinciales": 774.0, "votants_provinciales": 544.0, "participation_provinciales": 70.28, "abstentions_provinciales": 230.0, "abstention_provinciales": 29.72, "ecart_abstention_provinciales_municipales": -18.160539499036609 }, "geometry": { "type": "Point", "coordinates": [ 166.454860512436994, -22.268926132580098 ] } },
{ "type": "Feature", "properties": { "code_bv": "0019", "bureau_nom_resultats_municipales": "École Emily PANNE 2", "longitude": 166.45486051243699, "latitude": -22.268926132580098, "iris_codgeo": 1820, "iris_libgeo": "Vallée des Colons Nord Est", "inscrits_municipales": 1171.0, "votants_municipales": 600.0, "abstentions_municipales": 571.0, "abstention_municipales": 48.761742100768572, "bureau_nom_habituel": "Ecole Suzanne RUSSIER 2", "bureau_nom_provinciales": "Ecole Suzanne Russier 2", "inscrits_provinciales": 887.0, "votants_provinciales": 597.0, "participation_provinciales": 67.31, "abstentions_provinciales": 290.0, "abstention_provinciales": 32.69, "ecart_abstention_provinciales_municipales": -16.071742100768574 }, "geometry": { "type": "Point", "coordinates": [ 166.454860512436994, -22.268926132580098 ] } },
{ "type": "Feature", "properties": { "code_bv": "0020", "bureau_nom_resultats_municipales": "École Antoinette CHARBONNEAUX", "longitude": 166.46666463723, "latitude": -22.273716213111001, "iris_codgeo": 1816, "iris_libgeo": "Magenta Tours", "inscrits_municipales": 981.0, "votants_municipales": 594.0, "abstentions_municipales": 387.0, "abstention_municipales": 39.449541284403672, "bureau_nom_habituel": "Ecole Antoinette CHARBONNEAUX", "bureau_nom_provinciales": "Ecole Antoinette Charbonneaux", "inscrits_provinciales": 766.0, "votants_provinciales": 606.0, "participation_provinciales": 79.11, "abstentions_provinciales": 160.0, "abstention_provinciales": 20.89, "ecart_abstention_provinciales_municipales": -18.559541284403672 }, "geometry": { "type": "Point", "coordinates": [ 166.466664637229997, -22.273716213111001 ] } },
{ "type": "Feature", "properties": { "code_bv": "0021", "bureau_nom_resultats_municipales": "École Marie HAVET 1", "longitude": 166.471138313555, "latitude": -22.282888056301701, "iris_codgeo": 1818, "iris_libgeo": "Ouémo", "inscrits_municipales": 1270.0, "votants_municipales": 689.0, "abstentions_municipales": 581.0, "abstention_municipales": 45.748031496062993, "bureau_nom_habituel": "Ecole Marie HAVET 1", "bureau_nom_provinciales": "Ecole Marie Havet 1", "inscrits_provinciales": 896.0, "votants_provinciales": 674.0, "participation_provinciales": 75.22, "abstentions_provinciales": 222.0, "abstention_provinciales": 24.78, "ecart_abstention_provinciales_municipales": -20.968031496062991 }, "geometry": { "type": "Point", "coordinates": [ 166.471138313555002, -22.282888056301701 ] } },
{ "type": "Feature", "properties": { "code_bv": "0022", "bureau_nom_resultats_municipales": "École Marie HAVET 2", "longitude": 166.471138313555, "latitude": -22.282888056301701, "iris_codgeo": 1818, "iris_libgeo": "Ouémo", "inscrits_municipales": 1364.0, "votants_municipales": 728.0, "abstentions_municipales": 636.0, "abstention_municipales": 46.62756598240469, "bureau_nom_habituel": "Ecole Marie HAVET 2", "bureau_nom_provinciales": "Ecole Marie Havet 2", "inscrits_provinciales": 944.0, "votants_provinciales": 710.0, "participation_provinciales": 75.21, "abstentions_provinciales": 234.0, "abstention_provinciales": 24.79, "ecart_abstention_provinciales_municipales": -21.837565982404691 }, "geometry": { "type": "Point", "coordinates": [ 166.471138313555002, -22.282888056301701 ] } },
{ "type": "Feature", "properties": { "code_bv": "0023", "bureau_nom_resultats_municipales": "École Christine BOLETTI 1", "longitude": 166.465990390657, "latitude": -22.266177338024701, "iris_codgeo": 1827, "iris_libgeo": "Aérodrome Sud", "inscrits_municipales": 1235.0, "votants_municipales": 655.0, "abstentions_municipales": 580.0, "abstention_municipales": 46.963562753036435, "bureau_nom_habituel": "Ecole Christine BOLETTI 1", "bureau_nom_provinciales": "Ecole Chistine Boletti 1", "inscrits_provinciales": 902.0, "votants_provinciales": 657.0, "participation_provinciales": 72.84, "abstentions_provinciales": 245.0, "abstention_provinciales": 27.16, "ecart_abstention_provinciales_municipales": -19.803562753036434 }, "geometry": { "type": "Point", "coordinates": [ 166.465990390656998, -22.266177338024701 ] } },
{ "type": "Feature", "properties": { "code_bv": "0024", "bureau_nom_resultats_municipales": "École Christine BOLETTI 2", "longitude": 166.465990390657, "latitude": -22.266177338024701, "iris_codgeo": 1827, "iris_libgeo": "Aérodrome Sud", "inscrits_municipales": 1210.0, "votants_municipales": 470.0, "abstentions_municipales": 740.0, "abstention_municipales": 61.15702479338843, "bureau_nom_habituel": "Ecole Christine BOLETTI 2", "bureau_nom_provinciales": "Ecole Chistine Boletti 2", "inscrits_provinciales": 1070.0, "votants_provinciales": 582.0, "participation_provinciales": 54.39, "abstentions_provinciales": 488.0, "abstention_provinciales": 45.61, "ecart_abstention_provinciales_municipales": -15.547024793388431 }, "geometry": { "type": "Point", "coordinates": [ 166.465990390656998, -22.266177338024701 ] } },
{ "type": "Feature", "properties": { "code_bv": "0025", "bureau_nom_resultats_municipales": "École Michel CACOT 1", "longitude": 166.46365222343101, "latitude": -22.266219932480102, "iris_codgeo": 1826, "iris_libgeo": "Portes de Fer - Sud", "inscrits_municipales": 1288.0, "votants_municipales": 708.0, "abstentions_municipales": 580.0, "abstention_municipales": 45.031055900621119, "bureau_nom_habituel": "Ecole Michel CACOT 1", "bureau_nom_provinciales": "Ecole Michel Cacot 1", "inscrits_provinciales": 969.0, "votants_provinciales": 720.0, "participation_provinciales": 74.3, "abstentions_provinciales": 249.0, "abstention_provinciales": 25.7, "ecart_abstention_provinciales_municipales": -19.33105590062112 }, "geometry": { "type": "Point", "coordinates": [ 166.463652223431012, -22.266219932480102 ] } },
{ "type": "Feature", "properties": { "code_bv": "0026", "bureau_nom_resultats_municipales": "École Michel CACOT 2", "longitude": 166.46365222343101, "latitude": -22.266219932480102, "iris_codgeo": 1826, "iris_libgeo": "Portes de Fer - Sud", "inscrits_municipales": 1313.0, "votants_municipales": 680.0, "abstentions_municipales": 633.0, "abstention_municipales": 48.210205635948213, "bureau_nom_habituel": "Ecole Michel CACOT 2", "bureau_nom_provinciales": "Ecole Michel Cacot 2", "inscrits_provinciales": 872.0, "votants_provinciales": 648.0, "participation_provinciales": 74.31, "abstentions_provinciales": 224.0, "abstention_provinciales": 25.69, "ecart_abstention_provinciales_municipales": -22.520205635948212 }, "geometry": { "type": "Point", "coordinates": [ 166.463652223431012, -22.266219932480102 ] } },
{ "type": "Feature", "properties": { "code_bv": "0027", "bureau_nom_resultats_municipales": "École Céline TEYSSANDIER de LAUBAREDE", "longitude": 166.445705500987, "latitude": -22.264001775132702, "iris_codgeo": 1824, "iris_libgeo": "Vallée du Tir", "inscrits_municipales": 1139.0, "votants_municipales": 461.0, "abstentions_municipales": 678.0, "abstention_municipales": 59.525899912203684, "bureau_nom_habituel": "Ex-Ecole Céline TEYSSANDIER DE LAUBAREDE", "bureau_nom_provinciales": "Ecole C. T. de Laubarède", "inscrits_provinciales": 997.0, "votants_provinciales": 528.0, "participation_provinciales": 52.96, "abstentions_provinciales": 469.0, "abstention_provinciales": 47.04, "ecart_abstention_provinciales_municipales": -12.485899912203685 }, "geometry": { "type": "Point", "coordinates": [ 166.445705500987003, -22.264001775132702 ] } },
{ "type": "Feature", "properties": { "code_bv": "0028", "bureau_nom_resultats_municipales": "École Gustave MOUCHET 1", "longitude": 166.45441470306099, "latitude": -22.250450188119299, "iris_codgeo": 1828, "iris_libgeo": "Portes de Fer - Nord", "inscrits_municipales": 1101.0, "votants_municipales": 418.0, "abstentions_municipales": 683.0, "abstention_municipales": 62.03451407811081, "bureau_nom_habituel": "Ecole Gustave MOUCHET 1", "bureau_nom_provinciales": "Ecole Gustave Mouchet 1", "inscrits_provinciales": 1075.0, "votants_provinciales": 532.0, "participation_provinciales": 49.49, "abstentions_provinciales": 543.0, "abstention_provinciales": 50.51, "ecart_abstention_provinciales_municipales": -11.524514078110812 }, "geometry": { "type": "Point", "coordinates": [ 166.454414703060991, -22.250450188119299 ] } },
{ "type": "Feature", "properties": { "code_bv": "0029", "bureau_nom_resultats_municipales": "École Gustave MOUCHET 2", "longitude": 166.45441470306099, "latitude": -22.250450188119299, "iris_codgeo": 1828, "iris_libgeo": "Portes de Fer - Nord", "inscrits_municipales": 1044.0, "votants_municipales": 346.0, "abstentions_municipales": 698.0, "abstention_municipales": 66.858237547892713, "bureau_nom_habituel": "Ecole Gustave MOUCHET 2", "bureau_nom_provinciales": "Ecole Gustave Mouchet 2", "inscrits_provinciales": 959.0, "votants_provinciales": 454.0, "participation_provinciales": 47.34, "abstentions_provinciales": 505.0, "abstention_provinciales": 52.66, "ecart_abstention_provinciales_municipales": -14.198237547892717 }, "geometry": { "type": "Point", "coordinates": [ 166.454414703060991, -22.250450188119299 ] } },
{ "type": "Feature", "properties": { "code_bv": "0030", "bureau_nom_resultats_municipales": "École Mathilde BROQUET 1", "longitude": 166.46754984038699, "latitude": -22.256293239868, "iris_codgeo": 1827, "iris_libgeo": "Aérodrome Sud", "inscrits_municipales": 1357.0, "votants_municipales": 655.0, "abstentions_municipales": 702.0, "abstention_municipales": 51.731761238025058, "bureau_nom_habituel": "Ecole Mathilde BROQUET 1", "bureau_nom_provinciales": "Ecole Mathilde Broquet 1", "inscrits_provinciales": 1165.0, "votants_provinciales": 730.0, "participation_provinciales": 62.66, "abstentions_provinciales": 435.0, "abstention_provinciales": 37.34, "ecart_abstention_provinciales_municipales": -14.391761238025055 }, "geometry": { "type": "Point", "coordinates": [ 166.467549840386994, -22.256293239868 ] } },
{ "type": "Feature", "properties": { "code_bv": "0031", "bureau_nom_resultats_municipales": "École Marie COURTOT 1", "longitude": 166.47046437885899, "latitude": -22.242522007082901, "iris_codgeo": 1834, "iris_libgeo": "PK 6 Nord", "inscrits_municipales": 1443.0, "votants_municipales": 728.0, "abstentions_municipales": 715.0, "abstention_municipales": 49.549549549549546, "bureau_nom_habituel": "Ecole Marie COURTOT 1", "bureau_nom_provinciales": "Ecole Marie Courtot 1", "inscrits_provinciales": 1250.0, "votants_provinciales": 798.0, "participation_provinciales": 63.84, "abstentions_provinciales": 452.0, "abstention_provinciales": 36.16, "ecart_abstention_provinciales_municipales": -13.38954954954955 }, "geometry": { "type": "Point", "coordinates": [ 166.470464378858992, -22.242522007082901 ] } },
{ "type": "Feature", "properties": { "code_bv": "0032", "bureau_nom_resultats_municipales": "École Marie COURTOT 2", "longitude": 166.47046437885899, "latitude": -22.242522007082901, "iris_codgeo": 1834, "iris_libgeo": "PK 6 Nord", "inscrits_municipales": 1074.0, "votants_municipales": 666.0, "abstentions_municipales": 408.0, "abstention_municipales": 37.988826815642462, "bureau_nom_habituel": "Ecole Marie COURTOT 2", "bureau_nom_provinciales": "Ecole Marie Courtot 2", "inscrits_provinciales": 880.0, "votants_provinciales": 687.0, "participation_provinciales": 78.07, "abstentions_provinciales": 193.0, "abstention_provinciales": 21.93, "ecart_abstention_provinciales_municipales": -16.058826815642462 }, "geometry": { "type": "Point", "coordinates": [ 166.470464378858992, -22.242522007082901 ] } },
{ "type": "Feature", "properties": { "code_bv": "0033", "bureau_nom_resultats_municipales": "École Robert BURCK", "longitude": 166.46360194987301, "latitude": -22.238260433019299, "iris_codgeo": 1833, "iris_libgeo": "Riviére Salée Sud", "inscrits_municipales": 1023.0, "votants_municipales": 455.0, "abstentions_municipales": 568.0, "abstention_municipales": 55.52297165200391, "bureau_nom_habituel": "Ecole Robert BURCK", "bureau_nom_provinciales": "Ecole Robert Burck", "inscrits_provinciales": 960.0, "votants_provinciales": 595.0, "participation_provinciales": 61.98, "abstentions_provinciales": 365.0, "abstention_provinciales": 38.02, "ecart_abstention_provinciales_municipales": -17.502971652003907 }, "geometry": { "type": "Point", "coordinates": [ 166.463601949873009, -22.238260433019299 ] } },
{ "type": "Feature", "properties": { "code_bv": "0034", "bureau_nom_resultats_municipales": "École les ROSES", "longitude": 166.44313508710599, "latitude": -22.292907147620699, "iris_codgeo": 1806, "iris_libgeo": "Motor Pool - Receiving", "inscrits_municipales": 953.0, "votants_municipales": 464.0, "abstentions_municipales": 489.0, "abstention_municipales": 51.311647429171039, "bureau_nom_habituel": "Ecole Les ROSES", "bureau_nom_provinciales": "Ecole Les Roses", "inscrits_provinciales": 909.0, "votants_provinciales": 576.0, "participation_provinciales": 63.37, "abstentions_provinciales": 333.0, "abstention_provinciales": 36.63, "ecart_abstention_provinciales_municipales": -14.681647429171036 }, "geometry": { "type": "Point", "coordinates": [ 166.443135087105986, -22.292907147620699 ] } },
{ "type": "Feature", "properties": { "code_bv": "0035", "bureau_nom_resultats_municipales": "École les ŒILLETS", "longitude": 166.44313508710599, "latitude": -22.292907147620699, "iris_codgeo": 1806, "iris_libgeo": "Motor Pool - Receiving", "inscrits_municipales": 952.0, "votants_municipales": 456.0, "abstentions_municipales": 496.0, "abstention_municipales": 52.100840336134453, "bureau_nom_habituel": "Ecole Les OEILLETS", "bureau_nom_provinciales": "Ecole Les Oeillets", "inscrits_provinciales": 894.0, "votants_provinciales": 589.0, "participation_provinciales": 65.88, "abstentions_provinciales": 305.0, "abstention_provinciales": 34.12, "ecart_abstention_provinciales_municipales": -17.980840336134456 }, "geometry": { "type": "Point", "coordinates": [ 166.443135087105986, -22.292907147620699 ] } },
{ "type": "Feature", "properties": { "code_bv": "0036", "bureau_nom_resultats_municipales": "École Jacques TROUILLOT", "longitude": 166.471000599479, "latitude": -22.228359981950099, "iris_codgeo": 1838, "iris_libgeo": "Riviére Salée Nord Est", "inscrits_municipales": 917.0, "votants_municipales": 429.0, "abstentions_municipales": 488.0, "abstention_municipales": 53.217011995637947, "bureau_nom_habituel": "Ecole Jacques TROUILLOT", "bureau_nom_provinciales": "Ecole Jacques Trouillot", "inscrits_provinciales": 871.0, "votants_provinciales": 576.0, "participation_provinciales": 66.13, "abstentions_provinciales": 295.0, "abstention_provinciales": 33.87, "ecart_abstention_provinciales_municipales": -19.347011995637949 }, "geometry": { "type": "Point", "coordinates": [ 166.471000599478998, -22.228359981950099 ] } },
{ "type": "Feature", "properties": { "code_bv": "0037", "bureau_nom_resultats_municipales": "École Mauricette DEVAMBEZ 1", "longitude": 166.468616034294, "latitude": -22.2680303864914, "iris_codgeo": 1817, "iris_libgeo": "Magenta Est", "inscrits_municipales": 1459.0, "votants_municipales": 562.0, "abstentions_municipales": 897.0, "abstention_municipales": 61.480466072652504, "bureau_nom_habituel": "Ecole LES HIBISCUS 1", "bureau_nom_provinciales": "Ecole Les Hibiscus 1", "inscrits_provinciales": 1378.0, "votants_provinciales": 685.0, "participation_provinciales": 49.71, "abstentions_provinciales": 693.0, "abstention_provinciales": 50.29, "ecart_abstention_provinciales_municipales": -11.190466072652505 }, "geometry": { "type": "Point", "coordinates": [ 166.468616034294001, -22.2680303864914 ] } },
{ "type": "Feature", "properties": { "code_bv": "0038", "bureau_nom_resultats_municipales": "École Mauricette DEVAMBEZ 2", "longitude": 166.468616034294, "latitude": -22.2680303864914, "iris_codgeo": 1817, "iris_libgeo": "Magenta Est", "inscrits_municipales": 1299.0, "votants_municipales": 643.0, "abstentions_municipales": 656.0, "abstention_municipales": 50.500384911470363, "bureau_nom_habituel": "Ecole LES HIBISCUS 2", "bureau_nom_provinciales": "Ecole Les Hibiscus 2", "inscrits_provinciales": 1110.0, "votants_provinciales": 726.0, "participation_provinciales": 65.41, "abstentions_provinciales": 384.0, "abstention_provinciales": 34.59, "ecart_abstention_provinciales_municipales": -15.910384911470359 }, "geometry": { "type": "Point", "coordinates": [ 166.468616034294001, -22.2680303864914 ] } },
{ "type": "Feature", "properties": { "code_bv": "0039", "bureau_nom_resultats_municipales": "École Adrienne LOMONT 1", "longitude": 166.48415721657801, "latitude": -22.220646226025199, "iris_codgeo": 1840, "iris_libgeo": "Normandie Nord", "inscrits_municipales": 731.0, "votants_municipales": 309.0, "abstentions_municipales": 422.0, "abstention_municipales": 57.729138166894664, "bureau_nom_habituel": "Ecole Adrienne LOMONT 1", "bureau_nom_provinciales": "Ecole Adrienne Lomont 1", "inscrits_provinciales": 705.0, "votants_provinciales": 391.0, "participation_provinciales": 55.46, "abstentions_provinciales": 314.0, "abstention_provinciales": 44.54, "ecart_abstention_provinciales_municipales": -13.189138166894665 }, "geometry": { "type": "Point", "coordinates": [ 166.484157216578012, -22.220646226025199 ] } },
{ "type": "Feature", "properties": { "code_bv": "0040", "bureau_nom_resultats_municipales": "École Adrienne LOMONT 2", "longitude": 166.48415721657801, "latitude": -22.220646226025199, "iris_codgeo": 1840, "iris_libgeo": "Normandie Nord", "inscrits_municipales": 1781.0, "votants_municipales": 793.0, "abstentions_municipales": 988.0, "abstention_municipales": 55.474452554744524, "bureau_nom_habituel": "Ecole Adrienne LOMONT 2", "bureau_nom_provinciales": "Ecole Adrienne Lomont 2", "inscrits_provinciales": 1463.0, "votants_provinciales": 891.0, "participation_provinciales": 60.9, "abstentions_provinciales": 572.0, "abstention_provinciales": 39.1, "ecart_abstention_provinciales_municipales": -16.374452554744522 }, "geometry": { "type": "Point", "coordinates": [ 166.484157216578012, -22.220646226025199 ] } },
{ "type": "Feature", "properties": { "code_bv": "0041", "bureau_nom_resultats_municipales": "École Gustave LODS 1", "longitude": 166.435430928496, "latitude": -22.238137166211398, "iris_codgeo": 1843, "iris_libgeo": "Logicoop", "inscrits_municipales": 1173.0, "votants_municipales": 490.0, "abstentions_municipales": 683.0, "abstention_municipales": 58.226768968456945, "bureau_nom_habituel": "Ex-Ecole Gustave LODS 1", "bureau_nom_provinciales": "Ecole Gustave Lods 1", "inscrits_provinciales": 1068.0, "votants_provinciales": 607.0, "participation_provinciales": 56.84, "abstentions_provinciales": 461.0, "abstention_provinciales": 43.16, "ecart_abstention_provinciales_municipales": -15.066768968456948 }, "geometry": { "type": "Point", "coordinates": [ 166.435430928496004, -22.238137166211398 ] } },
{ "type": "Feature", "properties": { "code_bv": "0042", "bureau_nom_resultats_municipales": "École Gustave LODS 2", "longitude": 166.435430928496, "latitude": -22.238137166211398, "iris_codgeo": 1843, "iris_libgeo": "Logicoop", "inscrits_municipales": 1364.0, "votants_municipales": 552.0, "abstentions_municipales": 812.0, "abstention_municipales": 59.530791788856305, "bureau_nom_habituel": "Ex-Ecole Gustave LODS 2", "bureau_nom_provinciales": "Ecole Gustave Lods 2", "inscrits_provinciales": 1257.0, "votants_provinciales": 714.0, "participation_provinciales": 56.8, "abstentions_provinciales": 543.0, "abstention_provinciales": 43.2, "ecart_abstention_provinciales_municipales": -16.330791788856303 }, "geometry": { "type": "Point", "coordinates": [ 166.435430928496004, -22.238137166211398 ] } },
{ "type": "Feature", "properties": { "code_bv": "0043", "bureau_nom_resultats_municipales": "École Daniel TALON", "longitude": 166.429735177846, "latitude": -22.234349815387802, "iris_codgeo": 1843, "iris_libgeo": "Logicoop", "inscrits_municipales": 2004.0, "votants_municipales": 769.0, "abstentions_municipales": 1235.0, "abstention_municipales": 61.626746506986031, "bureau_nom_habituel": "Ecole Daniel TALON", "bureau_nom_provinciales": "Ecole Daniel Talon", "inscrits_provinciales": 1848.0, "votants_provinciales": 1048.0, "participation_provinciales": 56.71, "abstentions_provinciales": 800.0, "abstention_provinciales": 43.29, "ecart_abstention_provinciales_municipales": -18.336746506986032 }, "geometry": { "type": "Point", "coordinates": [ 166.429735177845998, -22.234349815387802 ] } },
{ "type": "Feature", "properties": { "code_bv": "0044", "bureau_nom_resultats_municipales": "École Louise VERGES", "longitude": 166.48601674580399, "latitude": -22.234340838822501, "iris_codgeo": 1835, "iris_libgeo": "Tina", "inscrits_municipales": 1068.0, "votants_municipales": 395.0, "abstentions_municipales": 673.0, "abstention_municipales": 63.014981273408239, "bureau_nom_habituel": "Ecole Maurice FONROBERT", "bureau_nom_provinciales": "Ecole Maurice Fonrobert", "inscrits_provinciales": 1058.0, "votants_provinciales": 575.0, "participation_provinciales": 54.35, "abstentions_provinciales": 483.0, "abstention_provinciales": 45.65, "ecart_abstention_provinciales_municipales": -17.36498127340824 }, "geometry": { "type": "Point", "coordinates": [ 166.486016745803994, -22.234340838822501 ] } },
{ "type": "Feature", "properties": { "code_bv": "0045", "bureau_nom_resultats_municipales": "École Mathilde BROQUET 2", "longitude": 166.46754984038699, "latitude": -22.256293239868, "iris_codgeo": 1827, "iris_libgeo": "Aérodrome Sud", "inscrits_municipales": 1647.0, "votants_municipales": 785.0, "abstentions_municipales": 862.0, "abstention_municipales": 52.337583485124469, "bureau_nom_habituel": "Ecole Mathilde BROQUET 2", "bureau_nom_provinciales": "Ecole Mathilde Broquet 2", "inscrits_provinciales": 1338.0, "votants_provinciales": 874.0, "participation_provinciales": 65.32, "abstentions_provinciales": 464.0, "abstention_provinciales": 34.68, "ecart_abstention_provinciales_municipales": -17.657583485124469 }, "geometry": { "type": "Point", "coordinates": [ 166.467549840386994, -22.256293239868 ] } },
{ "type": "Feature", "properties": { "code_bv": "0046", "bureau_nom_resultats_municipales": "École Yvonne DUPONT 2", "longitude": 166.44217365735199, "latitude": -22.292674881403499, "iris_codgeo": 1806, "iris_libgeo": "Motor Pool - Receiving", "inscrits_municipales": 907.0, "votants_municipales": 482.0, "abstentions_municipales": 425.0, "abstention_municipales": 46.857772877618523, "bureau_nom_habituel": "Ecole Yvonne DUPONT 2", "bureau_nom_provinciales": "Ecole Yvonne Dupont 2", "inscrits_provinciales": 585.0, "votants_provinciales": 454.0, "participation_provinciales": 77.61, "abstentions_provinciales": 131.0, "abstention_provinciales": 22.39, "ecart_abstention_provinciales_municipales": -24.467772877618522 }, "geometry": { "type": "Point", "coordinates": [ 166.442173657351987, -22.292674881403499 ] } },
{ "type": "Feature", "properties": { "code_bv": "0047", "bureau_nom_resultats_municipales": "École Paul BOYER 2", "longitude": 166.45248296915301, "latitude": -22.2781620536236, "iris_codgeo": 1811, "iris_libgeo": "Faubourg Blanchot", "inscrits_municipales": 985.0, "votants_municipales": 549.0, "abstentions_municipales": 436.0, "abstention_municipales": 44.263959390862944, "bureau_nom_habituel": "Ecole Paul BOYER 2", "bureau_nom_provinciales": "Ecole Paul Boyer 2", "inscrits_provinciales": 706.0, "votants_provinciales": 532.0, "participation_provinciales": 75.35, "abstentions_provinciales": 174.0, "abstention_provinciales": 24.65, "ecart_abstention_provinciales_municipales": -19.613959390862945 }, "geometry": { "type": "Point", "coordinates": [ 166.45248296915301, -22.2781620536236 ] } },
{ "type": "Feature", "properties": { "code_bv": "0048", "bureau_nom_resultats_municipales": "École Marguerite ARSAPIN", "longitude": 166.454280714904, "latitude": -22.279006096744599, "iris_codgeo": 1811, "iris_libgeo": "Faubourg Blanchot", "inscrits_municipales": 965.0, "votants_municipales": 411.0, "abstentions_municipales": 554.0, "abstention_municipales": 57.409326424870464, "bureau_nom_habituel": "Ecole Marguerite ARSAPIN", "bureau_nom_provinciales": "Ecole Marguerite Arsapin", "inscrits_provinciales": 925.0, "votants_provinciales": 536.0, "participation_provinciales": 57.95, "abstentions_provinciales": 389.0, "abstention_provinciales": 42.05, "ecart_abstention_provinciales_municipales": -15.359326424870467 }, "geometry": { "type": "Point", "coordinates": [ 166.454280714904002, -22.279006096744599 ] } },
{ "type": "Feature", "properties": { "code_bv": "0049", "bureau_nom_resultats_municipales": "École les PERVENCHES", "longitude": 166.46393514466499, "latitude": -22.257576617909301, "iris_codgeo": 1826, "iris_libgeo": "Portes de Fer - Sud", "inscrits_municipales": 1174.0, "votants_municipales": 610.0, "abstentions_municipales": 564.0, "abstention_municipales": 48.040885860306645, "bureau_nom_habituel": "Ex-Ecole Les PERVENCHES", "bureau_nom_provinciales": "Ecole Les Pervenches", "inscrits_provinciales": 896.0, "votants_provinciales": 648.0, "participation_provinciales": 72.32, "abstentions_provinciales": 248.0, "abstention_provinciales": 27.68, "ecart_abstention_provinciales_municipales": -20.360885860306645 }, "geometry": { "type": "Point", "coordinates": [ 166.463935144664987, -22.257576617909301 ] } },
{ "type": "Feature", "properties": { "code_bv": "0050", "bureau_nom_resultats_municipales": "École Albert PERRAUD", "longitude": 166.467888234029, "latitude": -22.261963683677099, "iris_codgeo": 1827, "iris_libgeo": "Aérodrome Sud", "inscrits_municipales": 1711.0, "votants_municipales": 668.0, "abstentions_municipales": 1043.0, "abstention_municipales": 60.95850379894798, "bureau_nom_habituel": "Ecole Albert PERRAUD", "bureau_nom_provinciales": "Ecole Albert Perraud", "inscrits_provinciales": 1545.0, "votants_provinciales": 793.0, "participation_provinciales": 51.33, "abstentions_provinciales": 752.0, "abstention_provinciales": 48.67, "ecart_abstention_provinciales_municipales": -12.288503798947978 }, "geometry": { "type": "Point", "coordinates": [ 166.467888234029004, -22.261963683677099 ] } },
{ "type": "Feature", "properties": { "code_bv": "0051", "bureau_nom_resultats_municipales": "École Michel AMIOT", "longitude": 166.468616034294, "latitude": -22.2680303864914, "iris_codgeo": 1817, "iris_libgeo": "Magenta Est", "inscrits_municipales": 1256.0, "votants_municipales": 693.0, "abstentions_municipales": 563.0, "abstention_municipales": 44.824840764331213, "bureau_nom_habituel": "Ecole Michel AMIOT", "bureau_nom_provinciales": "Ecole Michel Amiot", "inscrits_provinciales": 1032.0, "votants_provinciales": 752.0, "participation_provinciales": 72.87, "abstentions_provinciales": 280.0, "abstention_provinciales": 27.13, "ecart_abstention_provinciales_municipales": -17.694840764331214 }, "geometry": { "type": "Point", "coordinates": [ 166.468616034294001, -22.2680303864914 ] } },
{ "type": "Feature", "properties": { "code_bv": "0052", "bureau_nom_resultats_municipales": "École Charles BICHON", "longitude": 166.443767790723, "latitude": -22.280813268062499, "iris_codgeo": 1809, "iris_libgeo": "Orphelinat", "inscrits_municipales": 1265.0, "votants_municipales": 594.0, "abstentions_municipales": 671.0, "abstention_municipales": 53.043478260869563, "bureau_nom_habituel": "Ecole Charles BICHON", "bureau_nom_provinciales": "Ecole Charles Bichon", "inscrits_provinciales": 679.0, "votants_provinciales": 471.0, "participation_provinciales": 69.37, "abstentions_provinciales": 208.0, "abstention_provinciales": 30.63, "ecart_abstention_provinciales_municipales": -22.413478260869564 }, "geometry": { "type": "Point", "coordinates": [ 166.443767790723001, -22.280813268062499 ] } },
{ "type": "Feature", "properties": { "code_bv": "0053", "bureau_nom_resultats_municipales": "École les LYS", "longitude": 166.44313508710599, "latitude": -22.292907147620699, "iris_codgeo": 1806, "iris_libgeo": "Motor Pool - Receiving", "inscrits_municipales": 1371.0, "votants_municipales": 702.0, "abstentions_municipales": 669.0, "abstention_municipales": 48.796498905908095, "bureau_nom_habituel": "Ecole Les LYS", "bureau_nom_provinciales": "Ecole Les Lys", "inscrits_provinciales": 777.0, "votants_provinciales": 613.0, "participation_provinciales": 78.89, "abstentions_provinciales": 164.0, "abstention_provinciales": 21.11, "ecart_abstention_provinciales_municipales": -27.686498905908095 }, "geometry": { "type": "Point", "coordinates": [ 166.443135087105986, -22.292907147620699 ] } },
{ "type": "Feature", "properties": { "code_bv": "0054", "bureau_nom_resultats_municipales": "École le PETIT POUCET", "longitude": 166.446452105063, "latitude": -22.263846267665901, "iris_codgeo": 1824, "iris_libgeo": "Vallée du Tir", "inscrits_municipales": 1283.0, "votants_municipales": 598.0, "abstentions_municipales": 685.0, "abstention_municipales": 53.390491036632895, "bureau_nom_habituel": "Ecole Céline TEYSSANDIER DE LAUBAREDE", "bureau_nom_provinciales": "Ecole Le petit poucet", "inscrits_provinciales": 1023.0, "votants_provinciales": 635.0, "participation_provinciales": 62.07, "abstentions_provinciales": 388.0, "abstention_provinciales": 37.93, "ecart_abstention_provinciales_municipales": -15.460491036632895 }, "geometry": { "type": "Point", "coordinates": [ 166.446452105063003, -22.263846267665901 ] } },
{ "type": "Feature", "properties": { "code_bv": "0055", "bureau_nom_resultats_municipales": "École Serge LAIGLE", "longitude": 166.48601674580399, "latitude": -22.234340838822501, "iris_codgeo": 1835, "iris_libgeo": "Tina", "inscrits_municipales": 1449.0, "votants_municipales": 883.0, "abstentions_municipales": 566.0, "abstention_municipales": 39.061421670117319, "bureau_nom_habituel": "Ecole Serge LAIGLE", "bureau_nom_provinciales": "Ecole Serge Laigle", "inscrits_provinciales": 1071.0, "votants_provinciales": 853.0, "participation_provinciales": 79.65, "abstentions_provinciales": 218.0, "abstention_provinciales": 20.35, "ecart_abstention_provinciales_municipales": -18.711421670117318 }, "geometry": { "type": "Point", "coordinates": [ 166.486016745803994, -22.234340838822501 ] } },
{ "type": "Feature", "properties": { "code_bv": "0056", "bureau_nom_resultats_municipales": "École Guy CHAMPMOREAU", "longitude": 166.452313565802, "latitude": -22.289216194352498, "iris_codgeo": 1807, "iris_libgeo": "N'Géa", "inscrits_municipales": 1674.0, "votants_municipales": 789.0, "abstentions_municipales": 885.0, "abstention_municipales": 52.867383512544805, "bureau_nom_habituel": "Ecole Guy CHAMPMOREAU", "bureau_nom_provinciales": "Ecole Guy Champmoreau", "inscrits_provinciales": 1306.0, "votants_provinciales": 817.0, "participation_provinciales": 62.56, "abstentions_provinciales": 489.0, "abstention_provinciales": 37.44, "ecart_abstention_provinciales_municipales": -15.427383512544807 }, "geometry": { "type": "Point", "coordinates": [ 166.452313565802001, -22.289216194352498 ] } },
{ "type": "Feature", "properties": { "code_bv": "0057", "bureau_nom_resultats_municipales": "Mairie 3", "longitude": 166.439401925184, "latitude": -22.271405610422899, "iris_codgeo": 1822, "iris_libgeo": "Centre ville", "inscrits_municipales": 83.0, "votants_municipales": 3.0, "abstentions_municipales": 80.0, "abstention_municipales": 96.385542168674704, "bureau_nom_habituel": "Ecole MAIRIE 3 - Bureau Dérogatoire", "bureau_nom_provinciales": "Mairie 3", "inscrits_provinciales": 62.0, "votants_provinciales": 3.0, "participation_provinciales": 4.84, "abstentions_provinciales": 59.0, "abstention_provinciales": 95.16, "ecart_abstention_provinciales_municipales": -1.225542168674707 }, "geometry": { "type": "Point", "coordinates": [ 166.439401925184001, -22.271405610422899 ] } }
]
}
