{
"type": "FeatureCollection",
"name": "points_vote",
"crs": { "type": "name", "properties": { "name": "urn:ogc:def:crs:OGC:1.3:CRS84" } },
"features": [
{ "type": "Feature", "properties": { "source_id": "BV0001", "source_nom": "MAIRIE 1", "source_group": "bureaux_complets" }, "geometry": { "type": "Point", "coordinates": [ 166.4392148, -22.271053 ] } },
{ "type": "Feature", "properties": { "source_id": "BV0002", "source_nom": "MAIRIE 2", "source_group": "bureaux_complets" }, "geometry": { "type": "Point", "coordinates": [ 166.439662799999979, -22.271055299999983 ] } },
{ "type": "Feature", "properties": { "source_id": "BV0003", "source_nom": "Ecole Frédéric SURLEAU", "source_group": "bureaux_complets" }, "geometry": { "type": "Point", "coordinates": [ 166.445810699999981, -22.273127100000011 ] } },
{ "type": "Feature", "properties": { "source_id": "BV0004", "source_nom": "Ecole Marguerite LEFRANCOIS", "source_group": "bureaux_complets" }, "geometry": { "type": "Point", "coordinates": [ 166.4461612, -22.286015 ] } },
{ "type": "Feature", "properties": { "source_id": "BV0005", "source_nom": "Ecole Yvonne DUPONT 1", "source_group": "bureaux_complets" }, "geometry": { "type": "Point", "coordinates": [ 166.441316699999987, -22.294067599999966 ] } },
{ "type": "Feature", "properties": { "source_id": "BV0006", "source_nom": "Ecole Eloi FRANC 1", "source_group": "bureaux_complets" }, "geometry": { "type": "Point", "coordinates": [ 166.4475208, -22.297454500000018 ] } },
{ "type": "Feature", "properties": { "source_id": "BV0007", "source_nom": "Ecole Eloi FRANC 2", "source_group": "bureaux_complets" }, "geometry": { "type": "Point", "coordinates": [ 166.448007, -22.2975375 ] } },
{ "type": "Feature", "properties": { "source_id": "BV0008", "source_nom": "Ecole Fernande LERICHE 1", "source_group": "bureaux_complets" }, "geometry": { "type": "Point", "coordinates": [ 166.447935699999988, -22.2982767 ] } },
{ "type": "Feature", "properties": { "source_id": "BV0009", "source_nom": "Ecole Fernande LERICHE 2", "source_group": "bureaux_complets" }, "geometry": { "type": "Point", "coordinates": [ 166.4484005, -22.298377399999968 ] } },
{ "type": "Feature", "properties": { "source_id": "BV0010", "source_nom": "Ecole Jean MERMOUD 1", "source_group": "bureaux_complets" }, "geometry": { "type": "Point", "coordinates": [ 166.4553258, -22.2957204 ] } },
{ "type": "Feature", "properties": { "source_id": "BV0011", "source_nom": "Ecole Jean MERMOUD 2", "source_group": "bureaux_complets" }, "geometry": { "type": "Point", "coordinates": [ 166.4548797, -22.295908600000026 ] } },
{ "type": "Feature", "properties": { "source_id": "BV0012", "source_nom": "Ecole Ernest RISBEC 1", "source_group": "bureaux_complets" }, "geometry": { "type": "Point", "coordinates": [ 166.451866699999982, -22.2842418 ] } },
{ "type": "Feature", "properties": { "source_id": "BV0013", "source_nom": "Ecole Ernest RISBEC 2", "source_group": "bureaux_complets" }, "geometry": { "type": "Point", "coordinates": [ 166.4517569, -22.2846456 ] } },
{ "type": "Feature", "properties": { "source_id": "BV0014", "source_nom": "Ecole Paul BOYER 1", "source_group": "bureaux_complets" }, "geometry": { "type": "Point", "coordinates": [ 166.4527569, -22.278774399999978 ] } },
{ "type": "Feature", "properties": { "source_id": "BV0015", "source_nom": "Ecole Les CAPUCINES", "source_group": "bureaux_complets" }, "geometry": { "type": "Point", "coordinates": [ 166.4572715, -22.275402499999977 ] } },
{ "type": "Feature", "properties": { "source_id": "BV0016", "source_nom": "Ecole Candide KOCH 1", "source_group": "bureaux_complets" }, "geometry": { "type": "Point", "coordinates": [ 166.456645399999985, -22.274705199999975 ] } },
{ "type": "Feature", "properties": { "source_id": "BV0017", "source_nom": "Ecole Candide KOCH 2", "source_group": "bureaux_complets" }, "geometry": { "type": "Point", "coordinates": [ 166.456348599999984, -22.2744123 ] } },
{ "type": "Feature", "properties": { "source_id": "BV0018", "source_nom": "Ecole Suzanne RUSSIER 1", "source_group": "bureaux_complets" }, "geometry": { "type": "Point", "coordinates": [ 166.44708, -22.270086 ] } },
{ "type": "Feature", "properties": { "source_id": "BV0019", "source_nom": "Ecole Suzanne RUSSIER 2", "source_group": "bureaux_complets" }, "geometry": { "type": "Point", "coordinates": [ 166.446692499999983, -22.2702463 ] } },
{ "type": "Feature", "properties": { "source_id": "BV0020", "source_nom": "Ecole Antoinette CHARBONNEAUX", "source_group": "bureaux_complets" }, "geometry": { "type": "Point", "coordinates": [ 166.4668273, -22.2737213 ] } },
{ "type": "Feature", "properties": { "source_id": "BV0021", "source_nom": "Ecole Marie HAVET 1", "source_group": "bureaux_complets" }, "geometry": { "type": "Point", "coordinates": [ 166.470906899999989, -22.28312750000001 ] } },
{ "type": "Feature", "properties": { "source_id": "BV0022", "source_nom": "Ecole Marie HAVET 2", "source_group": "bureaux_complets" }, "geometry": { "type": "Point", "coordinates": [ 166.47130869999998, -22.2829559 ] } },
{ "type": "Feature", "properties": { "source_id": "BV0023", "source_nom": "Ecole Christine BOLETTI 1", "source_group": "bureaux_complets" }, "geometry": { "type": "Point", "coordinates": [ 166.4663415, -22.265952599999963 ] } },
{ "type": "Feature", "properties": { "source_id": "BV0024", "source_nom": "Ecole Christine BOLETTI 2", "source_group": "bureaux_complets" }, "geometry": { "type": "Point", "coordinates": [ 166.465886200000028, -22.2660172 ] } },
{ "type": "Feature", "properties": { "source_id": "BV0025", "source_nom": "Ecole Michel CACOT 1", "source_group": "bureaux_complets" }, "geometry": { "type": "Point", "coordinates": [ 166.463412299999987, -22.2662578 ] } },
{ "type": "Feature", "properties": { "source_id": "BV0026", "source_nom": "Ecole Michel CACOT 2", "source_group": "bureaux_complets" }, "geometry": { "type": "Point", "coordinates": [ 166.4638382, -22.266176199999986 ] } },
{ "type": "Feature", "properties": { "source_id": "BV0027", "source_nom": "Ex-Ecole Céline TEYSSANDIER DE LAUBAREDE", "source_group": "bureaux_complets" }, "geometry": { "type": "Point", "coordinates": [ 166.4443704, -22.2639933 ] } },
{ "type": "Feature", "properties": { "source_id": "BV0028", "source_nom": "Ecole Gustave MOUCHET 1", "source_group": "bureaux_complets" }, "geometry": { "type": "Point", "coordinates": [ 166.454618399999987, -22.2506565 ] } },
{ "type": "Feature", "properties": { "source_id": "BV0029", "source_nom": "Ecole Gustave MOUCHET 2", "source_group": "bureaux_complets" }, "geometry": { "type": "Point", "coordinates": [ 166.454364799999979, -22.250278500000025 ] } },
{ "type": "Feature", "properties": { "source_id": "BV0030", "source_nom": "Ecole Mathilde BROQUET 1", "source_group": "bureaux_complets" }, "geometry": { "type": "Point", "coordinates": [ 166.467036799999988, -22.2563075 ] } },
{ "type": "Feature", "properties": { "source_id": "BV0031", "source_nom": "Ecole Marie COURTOT 1", "source_group": "bureaux_complets" }, "geometry": { "type": "Point", "coordinates": [ 166.4705438, -22.242755299999963 ] } },
{ "type": "Feature", "properties": { "source_id": "BV0032", "source_nom": "Ecole Marie COURTOT 2", "source_group": "bureaux_complets" }, "geometry": { "type": "Point", "coordinates": [ 166.4701409, -22.2430146 ] } },
{ "type": "Feature", "properties": { "source_id": "BV0033", "source_nom": "Ecole Robert BURCK", "source_group": "bureaux_complets" }, "geometry": { "type": "Point", "coordinates": [ 166.4637553, -22.2382193 ] } },
{ "type": "Feature", "properties": { "source_id": "BV0034", "source_nom": "Ecole Les ROSES", "source_group": "bureaux_complets" }, "geometry": { "type": "Point", "coordinates": [ 166.464764299999985, -22.2376396 ] } },
{ "type": "Feature", "properties": { "source_id": "BV0035", "source_nom": "Ecole Les OEILLETS", "source_group": "bureaux_complets" }, "geometry": { "type": "Point", "coordinates": [ 166.4682803, -22.2303156 ] } },
{ "type": "Feature", "properties": { "source_id": "BV0036", "source_nom": "Ecole Jacques TROUILLOT", "source_group": "bureaux_complets" }, "geometry": { "type": "Point", "coordinates": [ 166.4712716, -22.2286964 ] } },
{ "type": "Feature", "properties": { "source_id": "BV0037", "source_nom": "Ecole LES HIBISCUS 1", "source_group": "bureaux_complets" }, "geometry": { "type": "Point", "coordinates": [ 166.47530949999998, -22.231972400000018 ] } },
{ "type": "Feature", "properties": { "source_id": "BV0038", "source_nom": "Ecole LES HIBISCUS 2", "source_group": "bureaux_complets" }, "geometry": { "type": "Point", "coordinates": [ 166.475639, -22.232262100000035 ] } },
{ "type": "Feature", "properties": { "source_id": "BV0039", "source_nom": "Ecole Adrienne LOMONT 1", "source_group": "bureaux_complets" }, "geometry": { "type": "Point", "coordinates": [ 166.484346499999987, -22.220629599999981 ] } },
{ "type": "Feature", "properties": { "source_id": "BV0040", "source_nom": "Ecole Adrienne LOMONT 2", "source_group": "bureaux_complets" }, "geometry": { "type": "Point", "coordinates": [ 166.4839155, -22.220480199999987 ] } },
{ "type": "Feature", "properties": { "source_id": "BV0041", "source_nom": "Ex-Ecole Gustave LODS 1", "source_group": "bureaux_complets" }, "geometry": { "type": "Point", "coordinates": [ 166.4347717, -22.2380672 ] } },
{ "type": "Feature", "properties": { "source_id": "BV0042", "source_nom": "Ex-Ecole Gustave LODS 2", "source_group": "bureaux_complets" }, "geometry": { "type": "Point", "coordinates": [ 166.4352405, -22.238126400000013 ] } },
{ "type": "Feature", "properties": { "source_id": "BV0043", "source_nom": "Ecole Daniel TALON", "source_group": "bureaux_complets" }, "geometry": { "type": "Point", "coordinates": [ 166.4300814, -22.234215099999989 ] } },
{ "type": "Feature", "properties": { "source_id": "BV0044", "source_nom": "Ecole Maurice FONROBERT", "source_group": "bureaux_complets" }, "geometry": { "type": "Point", "coordinates": [ 166.4286433, -22.232018700000012 ] } },
{ "type": "Feature", "properties": { "source_id": "BV0045", "source_nom": "Ecole Mathilde BROQUET 2", "source_group": "bureaux_complets" }, "geometry": { "type": "Point", "coordinates": [ 166.4675114, -22.2562783 ] } },
{ "type": "Feature", "properties": { "source_id": "BV0046", "source_nom": "Ecole Yvonne DUPONT 2", "source_group": "bureaux_complets" }, "geometry": { "type": "Point", "coordinates": [ 166.4413451, -22.2936172 ] } },
{ "type": "Feature", "properties": { "source_id": "BV0047", "source_nom": "Ecole Paul BOYER 2", "source_group": "bureaux_complets" }, "geometry": { "type": "Point", "coordinates": [ 166.452553699999982, -22.2784222 ] } },
{ "type": "Feature", "properties": { "source_id": "BV0048", "source_nom": "Ecole Marguerite ARSAPIN", "source_group": "bureaux_complets" }, "geometry": { "type": "Point", "coordinates": [ 166.4626481, -22.2287056 ] } },
{ "type": "Feature", "properties": { "source_id": "BV0049", "source_nom": "Ex-Ecole Les PERVENCHES", "source_group": "bureaux_complets" }, "geometry": { "type": "Point", "coordinates": [ 166.463994899999989, -22.257622699999981 ] } },
{ "type": "Feature", "properties": { "source_id": "BV0050", "source_nom": "Ecole Albert PERRAUD", "source_group": "bureaux_complets" }, "geometry": { "type": "Point", "coordinates": [ 166.4679544, -22.262065099999983 ] } },
{ "type": "Feature", "properties": { "source_id": "BV0051", "source_nom": "Ecole Michel AMIOT", "source_group": "bureaux_complets" }, "geometry": { "type": "Point", "coordinates": [ 166.468384599999979, -22.268270899999973 ] } },
{ "type": "Feature", "properties": { "source_id": "BV0052", "source_nom": "Ecole Charles BICHON", "source_group": "bureaux_complets" }, "geometry": { "type": "Point", "coordinates": [ 166.4437796, -22.2809881 ] } },
{ "type": "Feature", "properties": { "source_id": "BV0053", "source_nom": "Ecole Les LYS", "source_group": "bureaux_complets" }, "geometry": { "type": "Point", "coordinates": [ 166.4420748, -22.3002946 ] } },
{ "type": "Feature", "properties": { "source_id": "BV0054", "source_nom": "Ecole Céline TEYSSANDIER DE LAUBAREDE", "source_group": "bureaux_complets" }, "geometry": { "type": "Point", "coordinates": [ 166.445715899999982, -22.264142 ] } },
{ "type": "Feature", "properties": { "source_id": "BV0055", "source_nom": "Ecole Serge LAIGLE", "source_group": "bureaux_complets" }, "geometry": { "type": "Point", "coordinates": [ 166.485982399999983, -22.2343421 ] } },
{ "type": "Feature", "properties": { "source_id": "BV0056", "source_nom": "Ecole Guy CHAMPMOREAU", "source_group": "bureaux_complets" }, "geometry": { "type": "Point", "coordinates": [ 166.452062899999987, -22.289211299999977 ] } },
{ "type": "Feature", "properties": { "source_id": "BV0057", "source_nom": "Ecole MAIRIE 3 - Bureau Dérogatoire", "source_group": "bureaux_complets" }, "geometry": { "type": "Point", "coordinates": [ 166.439434299999988, -22.2714273 ] } },
{ "type": "Feature", "properties": { "source_id": "R01", "source_nom": "Hôtel de Ville de Nouméa", "source_group": "centres_8" }, "geometry": { "type": "Point", "coordinates": [ 166.439401925184001, -22.271405610422985 ] } },
{ "type": "Feature", "properties": { "source_id": "R02", "source_nom": "Salle omnisports W.K. Wawanabu de l'Anse-Vata", "source_group": "centres_8" }, "geometry": { "type": "Point", "coordinates": [ 166.444524508050989, -22.296642207312992 ] } },
{ "type": "Feature", "properties": { "source_id": "R03", "source_nom": "Salle Jean-Noyant", "source_group": "centres_8" }, "geometry": { "type": "Point", "coordinates": [ 166.448871879118997, -22.296558401305003 ] } },
{ "type": "Feature", "properties": { "source_id": "R04", "source_nom": "Collège Jean-Leques", "source_group": "centres_8" }, "geometry": { "type": "Point", "coordinates": [ 166.46644697502299, -22.272407348121003 ] } },
{ "type": "Feature", "properties": { "source_id": "R05", "source_nom": "École Céline-Teyssandier-de-Laubarede", "source_group": "centres_8" }, "geometry": { "type": "Point", "coordinates": [ 166.445705500987003, -22.264001775133007 ] } },
{ "type": "Feature", "properties": { "source_id": "R06", "source_nom": "Collège François-Ollivaud", "source_group": "centres_8" }, "geometry": { "type": "Point", "coordinates": [ 166.46400113083601, -22.260014770569004 ] } },
{ "type": "Feature", "properties": { "source_id": "R07", "source_nom": "Groupe scolaire Marie-Courtot / Henriette-Gervolino", "source_group": "centres_8" }, "geometry": { "type": "Point", "coordinates": [ 166.470464378858992, -22.242522007083004 ] } },
{ "type": "Feature", "properties": { "source_id": "R08", "source_nom": "Centre culturel Ko We Kara", "source_group": "centres_8" }, "geometry": { "type": "Point", "coordinates": [ 166.456104572756999, -22.235553621717983 ] } },
{ "type": "Feature", "properties": { "source_id": "R01", "source_nom": "Hôtel de Ville de Nouméa", "source_group": "centres_9" }, "geometry": { "type": "Point", "coordinates": [ 166.439401925184001, -22.271405610422985 ] } },
{ "type": "Feature", "properties": { "source_id": "R02", "source_nom": "Salle omnisports W.K. Wawanabu de l'Anse-Vata", "source_group": "centres_9" }, "geometry": { "type": "Point", "coordinates": [ 166.444524508050989, -22.296642207312992 ] } },
{ "type": "Feature", "properties": { "source_id": "R03", "source_nom": "Salle Jean-Noyant", "source_group": "centres_9" }, "geometry": { "type": "Point", "coordinates": [ 166.448871879118997, -22.296558401305003 ] } },
{ "type": "Feature", "properties": { "source_id": "R04", "source_nom": "Collège Jean-Leques", "source_group": "centres_9" }, "geometry": { "type": "Point", "coordinates": [ 166.46644697502299, -22.272407348121003 ] } },
{ "type": "Feature", "properties": { "source_id": "R05", "source_nom": "École Céline-Teyssandier-de-Laubarede", "source_group": "centres_9" }, "geometry": { "type": "Point", "coordinates": [ 166.445705500987003, -22.264001775133007 ] } },
{ "type": "Feature", "properties": { "source_id": "R06", "source_nom": "Collège François-Ollivaud", "source_group": "centres_9" }, "geometry": { "type": "Point", "coordinates": [ 166.46400113083601, -22.260014770569004 ] } },
{ "type": "Feature", "properties": { "source_id": "R07", "source_nom": "Groupe scolaire Marie-Courtot / Henriette-Gervolino", "source_group": "centres_9" }, "geometry": { "type": "Point", "coordinates": [ 166.470464378858992, -22.242522007083004 ] } },
{ "type": "Feature", "properties": { "source_id": "R09", "source_nom": "Collège de Kaméré", "source_group": "centres_9" }, "geometry": { "type": "Point", "coordinates": [ 166.434181176354002, -22.232179981996996 ] } },
{ "type": "Feature", "properties": { "source_id": "R10", "source_nom": "Salle de boxe municipale Vincent Kafoa", "source_group": "centres_9" }, "geometry": { "type": "Point", "coordinates": [ 166.463264611981003, -22.232851828901008 ] } }
]
}
